0 DELTA 1 DEB
1 21381U 75052DB  13282.18514066  .00040850  00000-0  11254-1 0  8665
2 21381 098.4619 061.1662 0001477 135.0732 350.5817 14.46664768135501
0 DELTA 1 DEB
1 21381U 75052DB  13283.13952687  .00034148  00000-0  94076-2 0  8674
2 21381 098.4613 062.1194 0001219 137.2589 276.0482 14.46724698135648
0 DELTA 1 DEB
1 21381U 75052DB  13283.75178233  .00042004  00000-0  11620-1 0  8694
2 21381 098.4639 062.7307 0001951 123.2892 236.8975 14.46740296135736
0 DELTA 1 DEB
1 21381U 75052DB  13284.10817090  .00033118  00000-0  91171-2 0  8680
2 21381 098.4606 063.0868 0000913 140.1946 275.1707 14.46770280135781
0 DELTA 1 DEB
1 21381U 75052DB  13286.19623991  .00029310  00000-0  80563-2 0  8701
2 21381 098.4595 065.1726 0000381 173.9419 310.9697 14.46881696136086
0 DELTA 1 DEB
1 21381U 75052DB  13287.35799686  .00029729  00000-0  81618-2 0  8712
2 21381 098.4593 066.3332 0000314 232.3450 180.5036 14.46935205136254
0 DELTA 1 DEB
1 21381U 75052DB  13288.11930041  .00050458  00000-0  13783-1 0  8720
2 21381 098.4590 067.0937 0000534 273.5954 142.6400 14.46993053136361
0 DELTA 1 DEB
1 21381U 75052DB  13289.08922022  .00041808  00000-0  11420-1 0  8733
2 21381 098.4591 068.0627 0000721 281.0750 144.8571 14.47066261136507
0 DELTA 1 DEB
1 21381U 75052DB  13289.65560135  .00043433  00000-0  11854-1 0  8747
2 21381 098.4591 068.6286 0000912 281.6004 213.1887 14.47092821136583
0 DELTA 1 DEB
1 21381U 75052DB  13290.68925529  .00042675  00000-0  11631-1 0  8755
2 21381 098.4591 069.6615 0001272 286.0887 190.5835 14.47165634136739
0 DELTA 1 DEB
1 21381U 75052DB  13291.36332302  .00035878  00000-0  97814-2 0  8768
2 21381 098.4591 070.3352 0001462 286.5535 099.9050 14.47210545136836
0 DELTA 1 DEB
1 21381U 75052DB  13292.84133603  .00036088  00000-0  98175-2 0  8771
2 21381 098.4592 071.8123 0001907 288.3319 234.3261 14.47312541137045
0 DELTA 1 DEB
1 21381U 75052DB  13294.13363063  .00039647  00000-0  10761-1 0  8789
2 21381 098.4588 073.1041 0002312 289.0833 123.1439 14.47389948137232
0 DELTA 1 DEB
1 21381U 75052DB  13295.44405575  .00044951  00000-0  12167-1 0  8796
2 21381 098.4583 074.4140 0002769 289.3958 107.1996 14.47475220137428
